OBJECT_NAME,OBJECT_ID,EPOCH,MEAN_MOTION,ECCENTRICITY,INCLINATION,RA_OF_ASC_NODE,ARG_OF_PERICENTER,MEAN_ANOMALY,EPHEMERIS_TYPE,CLASSIFICATION_TYPE,NORAD_CAT_ID,ELEMENT_SET_NO,REV_AT_EPOCH,BSTAR,MEAN_MOTION_DOT,MEAN_MOTION_DDOT
ONEWEB-0448,2022-012V,2025-12-06T12:36:59.948640,13.10376218,.00016552,87.8808,74.6965,105.2688,254.8622,0,U,51641,999,18406,-.15511507E-2,-.529E-5,0
ONEWEB-0449,2022-012W,2025-12-06T12:44:10.065120,13.10374248,.00016626,87.8816,74.6675,121.1884,238.9407,0,U,51642,999,18407,-.18230398E-2,-.624E-5,0
ONEWEB-0451,2022-012X,2025-12-06T15:13:58.681344,13.17650528,.00017385,87.9123,44.1185,104.8012,255.3312,0,U,51643,999,18830,.26403201E-3,.115E-5,0
ONEWEB-0452,2022-012Y,2025-12-06T13:22:12.614880,13.17649338,.000194,87.9113,44.1892,108.6005,251.5337,0,U,51644,999,18830,.23510808E-3,.104E-5,0
ONEWEB-0456,2022-012AA,2025-12-06T12:58:31.257984,13.10375900,.00017697,87.8826,74.6345,99.6072,260.5255,0,U,51646,999,18411,-.42068829E-3,-.134E-5,0
ONEWEB-0457,2022-012AB,2025-12-06T12:25:03.705600,13.10367088,.00012471,87.8801,74.6866,110.9778,249.1482,0,U,51647,999,18411,.42734345E-2,.1505E-4,0
ONEWEB-0458,2022-012AC,2025-12-06T12:56:07.659456,13.10376667,.00017193,87.8823,74.6554,109.3465,250.7849,0,U,51648,999,18407,-.62895526E-3,-.207E-5,0
ONEWEB-0461,2022-012AD,2025-12-06T15:43:09.119424,13.17649437,.00015826,87.9123,44.1289,100.2374,259.8936,0,U,51649,999,18853,.63122985E-4,.37E-6,0
ONEWEB-0463,2022-012AE,2025-12-06T15:16:25.269312,13.17648141,.00017637,87.9108,44.1776,102.7431,257.3897,0,U,51650,999,18831,.17436893E-3,.81E-6,0
ONEWEB-0464,2022-012AF,2025-12-06T05:31:31.281888,13.10375660,.00018319,87.8810,74.7532,97.8365,262.2971,0,U,51651,999,18405,-.10790404E-2,-.364E-5,0
ONEWEB-0468,2022-012AG,2025-12-06T05:41:05.397792,13.10376192,.00018433,87.8811,74.7448,104.1331,256.0002,0,U,51652,999,18403,-.94092407E-4,-.2E-6,0
ONEWEB-0473,2022-012AH,2025-12-06T12:39:23.274144,13.10372996,.00017149,87.8808,74.6902,106.9190,253.2126,0,U,51653,999,18407,-.19160973E-2,-.656E-5,0
ONEWEB-0474,2022-012AJ,2025-12-06T12:27:26.385696,13.10370349,.00018856,87.8814,74.6578,102.4458,257.6880,0,U,51654,999,18406,-.16036646E-2,-.547E-5,0
ONEWEB-0475,2022-012AK,2025-12-06T15:33:25.600608,13.17648679,.00024239,87.9114,44.1637,105.8621,254.2777,0,U,51655,999,18833,.15624141E-3,.74E-6,0
EOS-4,2022-013A,2025-12-06T14:37:19.710624,15.12723732,.00020465,97.5125,345.1916,101.0569,259.0892,0,U,51656,999,21037,.24045688E-3,.4148E-4,0
INSPIRESAT 1,2022-013B,2025-12-06T14:54:45.093600,15.60391731,.00054523,97.4636,17.2477,59.9116,300.2681,0,U,51657,999,21229,.10319868E-2,.85293E-3,0
STARLINK-3528,2022-016A,2025-12-06T13:03:54.451008,15.08838349,.00013214,53.2191,27.2418,78.6315,281.4826,0,U,51714,999,20936,-.38164123E-4,-.895E-5,0
STARLINK-3533,2022-016B,2025-12-06T12:53:18.030336,15.08855905,.00014617,53.2185,27.3071,77.3521,282.7635,0,U,51715,999,21049,-.281888E-6,-.292E-5,0
STARLINK-3543,2022-016C,2025-12-06T09:51:45.838944,15.08845846,.00012177,53.2186,27.8659,93.5922,266.5210,0,U,51716,999,20934,-.31163182E-4,-.784E-5,0
STARLINK-3445,2022-016D,2025-12-06T09:58:26.993280,15.08842683,.00014723,53.2193,27.9309,94.6619,265.4541,0,U,51717,999,20934,.91587188E-4,.117E-4,0
STARLINK-3546,2022-016E,2025-12-06T12:10:11.027712,15.10319942,.00027797,53.2167,27.2451,34.3332,325.7840,0,U,51718,999,21048,.39025212E-3,.6182E-4,0
STARLINK-3540,2022-016F,2025-12-06T09:46:28.512480,15.08853446,.00016891,53.2183,27.9581,73.4652,286.6525,0,U,51719,999,20934,.32220255E-3,.4845E-4,0
STARLINK-3526,2022-016G,2025-12-06T12:26:48.846624,15.08829269,.00016867,53.2172,27.3545,85.1366,274.9819,0,U,51720,999,20935,-.15698468E-3,-.2785E-4,0
STARLINK-3524,2022-016H,2025-12-06T12:42:42.933312,15.08829931,.00012564,53.2170,27.3440,82.3716,277.7419,0,U,51721,999,20936,.24791328E-3,.3659E-4,0
STARLINK-3535,2022-016J,2025-12-06T12:20:08.469888,15.08843870,.00012537,53.2169,27.4017,79.8929,280.2204,0,U,51722,999,20935,.72825427E-4,.871E-5,0
STARLINK-3529,2022-016L,2025-12-06T12:09:32.393088,15.08845845,.00013706,53.2184,27.4359,89.8696,270.2454,0,U,51724,999,20935,.26235122E-4,.13E-5,0
STARLINK-3522,2022-016M,2025-12-06T02:53:08.333376,15.08829218,.00015682,53.2190,29.1741,104.5034,255.6132,0,U,51725,999,20929,.22810013E-3,.3343E-4,0
STARLINK-3527,2022-016N,2025-12-06T09:58:24.244032,15.08833091,.00012919,53.2190,17.8453,108.0212,252.0921,0,U,51726,999,20948,-.14430113E-4,-.517E-5,0
STARLINK-3532,2022-016P,2025-12-06T12:14:50.375328,15.08847681,.00014269,53.2191,27.4200,95.5179,264.5976,0,U,51727,999,20935,.98009379E-4,.1273E-4,0
STARLINK-3523,2022-016R,2025-12-06T11:39:06.127776,15.08829073,.00013337,53.2176,17.5317,91.3150,268.7995,0,U,51729,999,20949,-.85012192E-4,-.164E-4,0
STARLINK-3514,2022-016T,2025-12-06T13:03:51.944544,15.08839548,.00013599,53.2176,17.2656,96.2497,263.8651,0,U,51731,999,20950,.64833426E-4,.744E-5,0
STARLINK-3518,2022-016U,2025-12-06T12:42:39.939552,15.08851815,.00014805,53.2175,17.3290,86.1323,273.9838,0,U,51732,999,21064,.53279122E-4,.56E-5,0
STARLINK-3525,2022-016V,2025-12-06T12:54:38.498112,15.08844481,.00014193,53.2184,17.3043,79.9093,280.2059,0,U,51733,999,20950,.67627164E-4,.789E-5,0
STARLINK-3450,2022-016W,2025-12-06T12:26:46.199328,15.08843227,.00015096,53.2176,17.3798,94.7445,265.3720,0,U,51734,999,20949,-.86950842E-4,-.1672E-4,0
STARLINK-3517,2022-016X,2025-12-06T09:26:35.527200,15.08841472,.00012559,53.2181,17.9428,97.7696,262.3439,0,U,51735,999,20948,.54550298E-4,.58E-5,0
STARLINK-3447,2022-016Y,2025-12-06T12:28:10.454880,15.08840040,.00013902,53.2175,17.4645,98.4572,261.6577,0,U,51736,999,20949,.42470618E-3,.6478E-4,0
STARLINK-3509,2022-016Z,2025-12-06T12:32:04.512480,15.08837562,.00015962,53.2175,17.3648,96.2444,263.8730,0,U,51737,999,20949,.30328634E-3,.4542E-4,0
STARLINK-3515,2022-016AA,2025-12-05T20:11:43.377792,15.08831592,.00013089,53.2181,20.4225,83.8506,276.2635,0,U,51738,999,20939,-.17474442E-4,-.566E-5,0
STARLINK-3516,2022-016AB,2025-12-06T12:21:27.596736,15.08848939,.00015544,53.2185,17.3960,103.6780,256.4386,0,U,51739,999,20949,.44956333E-4,.428E-5,0
STARLINK-3500,2022-016AC,2025-12-05T12:04:11.959680,15.08827174,.00014046,53.2193,21.9454,102.0010,258.1140,0,U,51740,999,20934,-.55490895E-4,-.1171E-4,0
STARLINK-3520,2022-016AD,2025-12-06T12:12:14.108832,15.08851311,.00014789,53.2179,17.4366,81.9721,278.1439,0,U,51741,999,20949,.31951023E-4,.221E-5,0
STARLINK-3521,2022-016AE,2025-12-06T09:05:25.911168,15.08841794,.00012668,53.2179,18.2028,87.8386,272.2752,0,U,51742,999,20947,.73735067E-4,.886E-5,0
STARLINK-3512,2022-016AF,2025-12-06T12:17:29.230368,15.08838927,.00016998,53.2180,7.3329,119.2089,240.9074,0,U,51743,999,20963,.5886849E-4,.649E-5,0
STARLINK-3452,2022-016AG,2025-12-06T11:44:22.773408,15.08840518,.00015598,53.2198,17.5458,92.5135,267.6036,0,U,51744,999,20949,.34822449E-4,.266E-5,0
STARLINK-3449,2022-016AH,2025-12-06T12:00:15.998688,15.08847512,.00016083,53.2190,17.4589,118.9328,241.1826,0,U,51745,999,20949,.19658759E-4,.25E-6,0
STARLINK-3502,2022-016AJ,2025-12-06T12:24:10.871136,15.08829615,.00014493,53.2206,7.4030,95.3477,264.7681,0,U,51746,999,20963,-.10814004E-4,-.46E-5,0
STARLINK-3446,2022-016AK,2025-12-06T02:18:45.021888,15.08836651,.00015097,53.2202,19.3271,79.9449,280.1713,0,U,51747,999,20943,-.37436776E-4,-.884E-5,0
STARLINK-3501,2022-016AL,2025-12-06T12:12:11.384640,15.08845301,.00015562,53.2180,7.4266,98.7573,261.3595,0,U,51748,999,20963,.1649263E-3,.2338E-4,0
STARLINK-3451,2022-016AM,2025-12-06T12:53:17.901600,15.08841358,.00012219,53.2195,17.4815,97.0636,263.0495,0,U,51749,999,20949,-.30585903E-4,-.775E-5,0
STARLINK-3505,2022-016AN,2025-12-06T08:52:11.639424,15.08844283,.0001348,53.2175,8.0598,87.1929,272.9218,0,U,51750,999,20961,.57715378E-4,.631E-5,0
STARLINK-3506,2022-016AP,2025-12-06T09:08:06.758592,15.08835896,.00013946,53.2182,8.0120,89.6728,270.4424,0,U,51751,999,20961,-.8990242E-5,-.431E-5,0
STARLINK-3511,2022-016AQ,2025-12-06T11:47:03.997536,15.08840728,.00015155,53.2171,7.4383,90.1829,269.9336,0,U,51752,999,20963,.67646425E-4,.789E-5,0
STARLINK-3507,2022-016AR,2025-12-06T08:57:30.620448,15.08835359,.00015075,53.2175,8.0441,100.1424,259.9738,0,U,51753,999,20961,.11314891E-3,.1513E-4,0
STARLINK-3457,2022-016AS,2025-12-06T11:13:52.176000,15.08838709,.00009329,53.2182,7.3684,105.0729,255.0367,0,U,51754,999,20963,-.13830943E-4,-.508E-5,0
STARLINK-3460,2022-016AT,2025-12-06T08:40:13.691712,15.08835376,.00015335,53.2184,8.0888,80.9394,279.1771,0,U,51755,999,20961,.36376387E-4,.291E-5,0
STARLINK-3513,2022-016AU,2025-12-06T11:08:36.295008,15.08846200,.00016957,53.2182,7.6314,103.8292,256.2889,0,U,51756,999,20963,-.70072864E-4,-.1403E-4,0
STARLINK-3459,2022-016AV,2025-12-06T11:04:41.148768,15.08830768,.00016902,53.2191,7.6468,85.9423,274.1762,0,U,51757,999,20963,-.48551544E-4,-.106E-4,0
STARLINK-3458,2022-016AW,2025-12-06T12:28:04.900224,15.08842607,.00014172,53.2174,7.3298,92.5989,267.5165,0,U,51758,999,21078,.95275351E-4,.1229E-4,0
STARLINK-3456,2022-016AX,2025-12-06T10:58:00.065280,15.08844745,.00012971,53.2192,7.6585,105.4327,254.6808,0,U,51759,999,20963,-.41928809E-4,-.955E-5,0
STARLINK-3622,2022-017A,2025-12-06T10:06:20.918016,15.08837495,.00012879,53.2185,37.8193,96.9097,263.2042,0,U,51768,999,20996,.4399176E-4,.412E-5,0
STARLINK-3621,2022-017B,2025-12-06T13:06:31.540032,15.08828946,.0001283,53.2184,37.2588,82.8973,277.2165,0,U,51769,999,20854,-.82157678E-4,-.1595E-4,0
STARLINK-3612,2022-017C,2025-12-05T13:21:02.659392,15.08823947,.000122,53.2179,41.7008,91.1324,268.9808,0,U,51770,999,20840,.22708035E-4,.73E-6,0
STARLINK-3614,2022-017D,2025-12-06T03:28:54.174144,15.08833054,.00013204,53.2191,39.0487,99.1611,260.9531,0,U,51771,999,20848,-.9045207E-5,-.432E-5,0
STARLINK-3623,2022-017E,2025-12-06T11:15:13.844736,15.08841628,.00012607,53.2184,37.6049,81.2963,278.8172,0,U,51772,999,20852,-.11457813E-4,-.47E-5,0
STARLINK-3624,2022-017F,2025-12-06T12:57:17.399808,15.08843217,.00017063,53.2184,37.2590,105.4080,254.7100,0,U,51773,999,20854,-.68547428E-4,-.1379E-4,0
